OBJECT_NAME,OBJECT_ID,EPOCH,MEAN_MOTION,ECCENTRICITY,INCLINATION,RA_OF_ASC_NODE,ARG_OF_PERICENTER,MEAN_ANOMALY,EPHEMERIS_TYPE,CLASSIFICATION_TYPE,NORAD_CAT_ID,ELEMENT_SET_NO,REV_AT_EPOCH,BSTAR,MEAN_MOTION_DOT,MEAN_MOTION_DDOT
INTELSAT 23 (IS-23),2012-057A,2026-07-13T20:03:18.630720,1.00273836,.0000336,0.0145,25.1619,168.0285,346.3501,0,U,38867,999,5022,0,-.29E-5,0
FM-6,2013-058A,2026-07-13T14:37:18.348096,1.00267432,.000123,0.0138,31.1834,152.2695,210.9965,0,U,39360,999,4633,0,-.19E-6,0
INTELSAT 30 (IS-30),2014-062A,2026-07-13T19:51:12.291840,1.00270855,.0001469,0.0159,46.9890,332.6212,114.8422,0,U,40271,999,706,0,-.156E-5,0
DIRECTV 14,2014-078B,2026-07-13T16:24:54.537120,1.00270895,.000044,0.0137,47.0727,281.2375,110.2274,0,U,40333,999,4230,0,-.13E-5,0
DIRECTV 15,2015-026A,2026-07-13T12:21:38.618784,1.00272384,.00000657,0.0179,71.5022,256.9146,45.5133,0,U,40663,999,4072,0,-.106E-5,0
SKY MEXICO-1,2015-026B,2026-07-13T19:55:56.839008,1.00270379,.000233,0.0178,27.4608,108.1267,16.2974,0,U,40664,999,4072,0,-.239E-5,0
INTELSAT 34 (IS-34),2015-039A,2026-07-13T20:02:41.191008,1.00271912,.0000557,0.0105,343.6304,10.2654,182.9958,0,U,40874,999,3990,0,-.291E-5,0
INTELSAT 31 (IS-31),2016-035A,2026-07-13T17:28:08.970240,1.00270962,.0001193,0.0280,264.7941,24.5000,169.2959,0,U,41581,999,3695,0,-.155E-5,0
INTELSAT 36 (IS-36),2016-053A,2026-07-13T20:59:39.536160,1.00270208,.0002514,0.0101,22.6165,318.3716,334.1523,0,U,41747,999,3622,0,-.29E-6,0
INTELSAT 32E (IS-32E),2017-007B,2026-07-13T18:23:31.209216,1.00269936,.0000485,0.0235,44.2470,284.5035,195.6038,0,U,41945,999,3449,0,0,0
INTELSAT 35E (IS-35E),2017-041A,2026-07-13T20:47:48.471936,1.00267434,.0001586,0.0248,49.4602,61.7032,98.0326,0,U,42818,999,3308,0,0,0
INTELSAT 37E (IS-37E),2017-059A,2026-07-13T20:13:23.060064,1.00269909,.0002537,0.0031,118.1162,5.2623,93.6695,0,U,42950,999,3233,0,-.146E-5,0
AZERSPACE 2 (IS-38),2018-074A,2026-07-13T20:31:24.286080,1.00269893,.0001256,0.0257,48.3073,75.4462,160.9433,0,U,43632,999,2871,0,0,0
HORIZONS-3E,2018-074B,2026-07-13T15:21:38.464992,1.00270118,.0000941,0.0498,224.9289,53.6947,52.2963,0,U,43633,999,2860,0,-.35E-6,0
AT&T T-16,2019-034A,2026-07-13T19:49:34.949280,1.00268301,.0000635,0.0125,66.3669,250.1732,171.6875,0,U,44333,999,2590,0,-.12E-5,0
INTELSAT 39 (IS-39),2019-049B,2026-07-13T20:36:08.832384,1.00271688,.0000726,0.0241,49.3108,279.3782,334.0361,0,U,44476,999,2539,0,0,0
GALAXY 30 (G-30),2020-056C,2026-07-13T18:00:10.946016,1.00271322,.0001946,0.0175,39.6289,75.1758,321.8537,0,U,46114,999,2155,0,.32E-6,0
GALAXY 33 (G-33),2022-128A,2026-07-13T17:57:56.161152,1.00271650,.000175,0.0145,21.6934,98.6430,307.7654,0,U,54026,999,1400,0,.74E-6,0
GALAXY 34 (G-34),2022-128B,2026-07-13T14:33:41.193792,1.00274247,.000145,0.0256,29.1421,98.4666,253.3005,0,U,54027,999,1417,0,0,0
GALAXY 31 (G-31),2022-153A,2026-07-13T14:36:03.466080,1.00270713,.0000944,0.0171,66.0837,53.9617,269.4339,0,U,54243,999,739,0,.9E-7,0
GALAXY 32 (G-32),2022-153B,2026-07-13T12:13:38.932032,1.00269974,.00014004,0.0121,29.6563,18.1075,336.0269,0,U,54244,999,1340,0,-.178E-5,0
GALAXY 35 (G-35),2022-170A,2026-07-13T19:51:57.220704,1.00268549,.0001894,0.0255,66.8754,50.3882,19.3205,0,U,54741,999,1316,0,0,0
GALAXY 36 (G-36),2022-170B,2026-07-13T19:52:57.126144,1.00268922,.0002378,0.0109,83.2850,17.9872,39.6784,0,U,54742,999,1304,0,0,0
GALAXY 37 (G-37),2023-112A,2026-07-13T14:34:18.635232,1.00271208,.0001736,0.0209,72.2234,45.1732,265.6549,0,U,57493,999,1080,0,.44E-6,0
