INTELSAT 23 (IS-23)     
1 38867U 12057A   26194.83563230 -.00000290  00000+0  00000+0 0  9999
2 38867   0.0145  25.1619 0000336 168.0285 346.3501  1.00273836 50221
FM-6                    
1 39360U 13058A   26194.60924014 -.00000019  00000+0  00000+0 0  9995
2 39360   0.0138  31.1834 0001230 152.2695 210.9965  1.00267432 46334
INTELSAT 30 (IS-30)     
1 40271U 14062A   26194.82722560 -.00000156  00000+0  00000+0 0  9992
2 40271   0.0159  46.9890 0001469 332.6212 114.8422  1.00270855  7069
DIRECTV 14              
1 40333U 14078B   26194.68396455 -.00000130  00000+0  00000+0 0  9994
2 40333   0.0137  47.0727 0000440 281.2375 110.2274  1.00270895 42307
DIRECTV 15              
1 40663U 15026A   26194.51503031 -.00000106  00000+0  00000+0 0  9999
2 40663   0.0179  71.5022 0000065 256.9146  45.5133  1.00272384 40720
SKY MEXICO-1            
1 40664U 15026B   26194.83051897 -.00000239  00000+0  00000+0 0  9990
2 40664   0.0178  27.4608 0002330 108.1267  16.2974  1.00270379 40729
INTELSAT 34 (IS-34)     
1 40874U 15039A   26194.83519897 -.00000291  00000+0  00000+0 0  9994
2 40874   0.0105 343.6304 0000557  10.2654 182.9958  1.00271912 39905
INTELSAT 31 (IS-31)     
1 41581U 16035A   26194.72788160 -.00000155  00000+0  00000+0 0  9995
2 41581   0.0280 264.7941 0001193  24.5000 169.2959  1.00270962 36950
INTELSAT 36 (IS-36)     
1 41747U 16053A   26194.87476315 -.00000029  00000+0  00000+0 0  9991
2 41747   0.0101  22.6165 0002514 318.3716 334.1523  1.00270208 36224
INTELSAT 32E (IS-32E)   
1 41945U 17007B   26194.76633344  .00000000  00000+0  00000+0 0  9994
2 41945   0.0235  44.2470 0000485 284.5035 195.6038  1.00269936 34498
INTELSAT 35E (IS-35E)   
1 42818U 17041A   26194.86653324  .00000000  00000+0  00000+0 0  9993
2 42818   0.0248  49.4602 0001586  61.7032  98.0326  1.00267434 33082
INTELSAT 37E (IS-37E)   
1 42950U 17059A   26194.84262801 -.00000146  00000+0  00000+0 0  9995
2 42950   0.0031 118.1162 0002537   5.2623  93.6695  1.00269909 32336
AZERSPACE 2 (IS-38)     
1 43632U 18074A   26194.85514220  .00000000  00000+0  00000+0 0  9995
2 43632   0.0257  48.3073 0001256  75.4462 160.9433  1.00269893 28713
HORIZONS-3E             
1 43633U 18074B   26194.64002853 -.00000035  00000+0  00000+0 0  9996
2 43633   0.0498 224.9289 0000941  53.6947  52.2963  1.00270118 28609
AT&T T-16               
1 44333U 19034A   26194.82609895 -.00000120  00000+0  00000+0 0  9995
2 44333   0.0125  66.3669 0000635 250.1732 171.6875  1.00268301 25909
INTELSAT 39 (IS-39)     
1 44476U 19049B   26194.85843556  .00000000  00000+0  00000+0 0  9992
2 44476   0.0241  49.3108 0000726 279.3782 334.0361  1.00271688 25394
GALAXY 30 (G-30)        
1 46114U 20056C   26194.75012669  .00000032  00000+0  00000+0 0  9990
2 46114   0.0175  39.6289 0001946  75.1758 321.8537  1.00271322 21551
GALAXY 33 (G-33)        
1 54026U 22128A   26194.74856668  .00000074  00000+0  00000+0 0  9993
2 54026   0.0145  21.6934 0001750  98.6430 307.7654  1.00271650 14006
GALAXY 34 (G-34)        
1 54027U 22128B   26194.60672678  .00000000  00000+0  00000+0 0  9995
2 54027   0.0256  29.1421 0001450  98.4666 253.3005  1.00274247 14179
GALAXY 31 (G-31)        
1 54243U 22153A   26194.60837345  .00000009  00000+0  00000+0 0  9996
2 54243   0.0171  66.0837 0000944  53.9617 269.4339  1.00270713  7393
GALAXY 32 (G-32)        
1 54244U 22153B   26194.50947838 -.00000178  00000+0  00000+0 0  9993
2 54244   0.0121  29.6563 0001400  18.1075 336.0269  1.00269974 13408
GALAXY 35 (G-35)        
1 54741U 22170A   26194.82774561  .00000000  00000+0  00000+0 0  9993
2 54741   0.0255  66.8754 0001894  50.3882  19.3205  1.00268549 13165
GALAXY 36 (G-36)        
1 54742U 22170B   26194.82843896  .00000000  00000+0  00000+0 0  9992
2 54742   0.0109  83.2850 0002378  17.9872  39.6784  1.00268922 13049
GALAXY 37 (G-37)        
1 57493U 23112A   26194.60716013  .00000044  00000+0  00000+0 0  9999
2 57493   0.0209  72.2234 0001736  45.1732 265.6549  1.00271208 10807
